[{"OBJECT_NAME":"STARLINK-32526","OBJECT_ID":"2024-224Z","EPOCH":"2026-03-08T08:05:01.940928","MEAN_MOTION":15.27595722,"ECCENTRICITY":6.467e-5,"INCLINATION":43.0003,"RA_OF_ASC_NODE":169.1623,"ARG_OF_PERICENTER":192.8107,"MEAN_ANOMALY":167.2729,"EPHEMERIS_TYPE":0,"CLASSIFICATION_TYPE":"U","NORAD_CAT_ID":62162,"ELEMENT_SET_NO":999,"REV_AT_EPOCH":7222,"BSTAR":0.0017346028,"MEAN_MOTION_DOT":0.00047803,"MEAN_MOTION_DDOT":0},{"OBJECT_NAME":"COSMOS 2251 DEB","OBJECT_ID":"1993-036RB","EPOCH":"2026-03-09T01:08:04.800192","MEAN_MOTION":15.30699894,"ECCENTRICITY":0.00252965,"INCLINATION":73.7308,"RA_OF_ASC_NODE":76.2904,"ARG_OF_PERICENTER":263.9966,"MEAN_ANOMALY":95.8352,"EPHEMERIS_TYPE":0,"CLASSIFICATION_TYPE":"U","NORAD_CAT_ID":34410,"ELEMENT_SET_NO":999,"REV_AT_EPOCH":91089,"BSTAR":0.003018315,"MEAN_MOTION_DOT":0.00091531,"MEAN_MOTION_DDOT":0}]
